[{"OBJECT_NAME":"CELESTIS-17 & SHERPA-FX1","OBJECT_ID":"2021-006CB","EPOCH":"2026-03-09T15:26:05.078112","MEAN_MOTION":15.30994801,"ECCENTRICITY":0.000663,"INCLINATION":97.2397,"RA_OF_ASC_NODE":112.1052,"ARG_OF_PERICENTER":178.1385,"MEAN_ANOMALY":181.9882,"EPHEMERIS_TYPE":0,"CLASSIFICATION_TYPE":"U","NORAD_CAT_ID":47486,"ELEMENT_SET_NO":999,"REV_AT_EPOCH":28406,"BSTAR":0.00024301,"MEAN_MOTION_DOT":7.207e-5,"MEAN_MOTION_DDOT":0},{"OBJECT_NAME":"STARLINK-2533","OBJECT_ID":"2021-036U","EPOCH":"2026-03-09T07:36:01.618560","MEAN_MOTION":15.3019536,"ECCENTRICITY":0.00011709,"INCLINATION":53.1612,"RA_OF_ASC_NODE":76.9993,"ARG_OF_PERICENTER":119.6807,"MEAN_ANOMALY":240.431,"EPHEMERIS_TYPE":0,"CLASSIFICATION_TYPE":"U","NORAD_CAT_ID":48294,"ELEMENT_SET_NO":999,"REV_AT_EPOCH":26835,"BSTAR":-4.499489e-5,"MEAN_MOTION_DOT":-1.691e-5,"MEAN_MOTION_DDOT":0}]
